ONEWEB-0403             
1 50483U 21132Q   25023.68201203 -.00000002  00000+0 -37690-4 0  9995
2 50483  87.9067  76.8082 0001858  94.9822 265.1522 13.18684889154443
ONEWEB-0404             
1 50484U 21132R   25023.82165721 -.00000295  00000+0 -86729-3 0  9996
2 50484  87.8906 122.5970 0001601  92.9552 267.1759 13.11412288148930
ONEWEB-0405             
1 50485U 21132S   25023.69781796  .00000033  00000+0  50907-4 0  9996
2 50485  87.9071  76.7946 0001503 100.5915 259.5387 13.18684381154849
ONEWEB-0406             
1 50486U 21132T   25023.68675406  .00000019  00000+0  15948-4 0  9996
2 50486  87.9073  76.8134 0002257  86.5061 273.6329 13.18685019154475
ONEWEB-0407             
1 50487U 21132U   25023.68042737 -.00000006  00000+0 -47931-4 0  9997
2 50487  87.9064  76.8066 0001650  98.0972 262.0347 13.18684487154419
ONEWEB-0409             
1 50488U 21132V   25023.81997107 -.00000251  00000+0 -74308-3 0  9992
2 50488  87.8898 122.5748 0001846  97.2270 262.9067 13.11414126148829
ONEWEB-0412             
1 50489U 21132W   25023.66935853 -.00000003  00000+0 -39552-4 0  9994
2 50489  87.9069  76.8192 0001436 106.4931 253.6359 13.18684301154501
ONEWEB-0413             
1 50490U 21132X   25023.67410025  .00000007  00000+0 -14309-4 0  9992
2 50490  87.9069  76.8304 0001572 108.5913 251.5390 13.18684113154448
